#aV2007  1 22  0  0   .00000000      96 DD+AD WGS84 FIT  NGA
## 1411  86400.00000000   900.00000000 54122  .0000000000000
+   30     1  2  3  4  5  6  7  8  9 10 11 12 13 14 16 17 18
+         19 20 21 22 23 24 25 26 27 28 29 30 31  0  0  0  0
+          0  0  0  0  0  0  0  0  0  0  0  0  0  0  0  0  0
+          0  0  0  0  0  0  0  0  0  0  0  0  0  0  0  0  0
+          0  0  0  0  0  0  0  0  0  0  0  0  0  0  0  0  0
++         0  0  0  0  0  0  0  0  0  0  0  0  0  0  0  0  0
++         0  0  0  0  0  0  0  0  0  0  0  0  0  0  0  0  0
++         0  0  0  0  0  0  0  0  0  0  0  0  0  0  0  0  0
++         0  0  0  0  0  0  0  0  0  0  0  0  0  0  0  0  0
++         0  0  0  0  0  0  0  0  0  0  0  0  0  0  0  0  0
%c cc cc ccc ccc cccc cccc cccc cccc ccccc ccccc ccccc ccccc
%c cc cc ccc ccc cccc cccc cccc cccc ccccc ccccc ccccc ccccc
%f  0.0000000  0.000000000  0.00000000000  0.000000000000000
%f  0.0000000  0.000000000  0.00000000000  0.000000000000000
%i    0    0    0    0      0      0      0      0         0
%i    0    0    0    0      0      0      0      0         0
/*      NGA, ST. LOUIS,MO.                                  
/*   EPHEMERIS COMPUTED FROM  3 DAYS OF DATA                
/* CCCCCCCCCCCCCCCCCCCCCCCCCCCCCCCCCCCCCCCCCCCCCCCCCCCCCCCCC
/* CCCCCCCCCCCCCCCCCCCCCCCCCCCCCCCCCCCCCCCCCCCCCCCCCCCCCCCCC
*  2007  1 22  0 30   .00000000                                                 
P  1 -16361.507179  -4910.170545 -20147.644881    102.895174                    
V  1  -9187.898218 -24289.766684  13185.628617       .023407                    
P  2  19475.039926  -6944.191405 -16767.554861     75.420346                    
V  2 -10190.086111  18468.154951 -20010.473355       .034228                    
P  3 -17328.675481    257.323997  20000.747711      1.545870                    
V  3 -12194.803531 -22879.211460  -9842.259455       .059338                    
P  4  14230.884298   6709.865174 -21486.031472    356.177061                    
V  4 -15751.526205  22126.862633  -3170.773276       .026116                    
P  5  11430.957256 -14225.396019 -19481.799671     16.646148                    
V  5  24362.616138   1552.062020  13468.378923       .119802                    
P  6  -4756.009286 -24336.297507  -9256.718598    440.537221                    
V  6   8539.026421   9198.367268 -28061.576673      -.239662                    
P  7  -7607.133107 -24389.752627  -6762.217202    439.679739                    
V  7   7492.144016   6254.371890 -29604.509836      -.111410                    
P  8   5852.286018  15322.861032  20669.476366    -93.920320                    
V  8 -16973.211889  20486.618887 -10743.088179      -.013053                    
P  9  15139.645561 -21560.461917   1535.645198     54.146274                    
V  9   1038.846675   3833.283565  31907.745798       .016830                    
P 10  25716.536261  -1932.386497   6928.455668     96.249992                    
V 10   8562.322929   3076.790313 -30146.553788       .005810                    
P 11 -12209.730541  23384.845267   1059.399513      4.464360                    
V 11  -3973.711489  -3564.553661  30353.442831       .014211                    
P 12  13138.982847 -12439.215089 -19325.851329    -60.388287                    
V 12  24581.167944   3374.746785  14498.386580       .057559                    
P 13   5721.357611  25002.176940  -7081.684887    135.269799                    
V 13  -4981.260949  -7471.919397 -30751.675621       .040175                    
P 14 -15501.973315 -19386.071609  -9463.269050      5.517937                    
V 14  -3337.912884 -11743.900248  29197.790600       .012775                    
P 16 -26546.528478  -1676.125604   1357.467239    114.693036                    
V 16  -1353.722899  -2767.057261 -31669.328913       .037959                    
P 17  16050.391422  19053.868943  -9374.020337     81.616654                    
V 17   2717.403048  11817.002404  28566.379000      -.014466                    
P 18  -8485.189633 -15430.084017  20108.275939   -253.890074                    
V 18  25085.693399   2250.562728  12077.882922       .000074                    
P 19 -12047.885568  10413.883996  21338.509420     59.347837                    
V 19 -10413.967594 -24810.455238   6348.925321       .043727                    
P 20 -10446.299322  13650.166211 -20329.626664    -22.062220                    
V 20 -25487.798628  -2981.937317  11188.217972      -.000987                    
P 21   -710.412477 -20021.513456  17251.360653     69.121523                    
V 21  15095.236864 -16181.319125 -18812.381614       .011125                    
P 22 -19887.655651 -12047.502957  13012.452126    163.360240                    
V 22  16453.720349   -183.883159  25268.310278       .021659                    
P 23  -2698.116893  20709.980661 -16374.307231    146.848315                    
V 23 -10389.342892 -17991.186615 -21331.149546       .014318                    
P 24  18310.866961 -19056.030132  -3893.508854     70.679191                    
V 24  -1073.201745   5671.828157 -30957.426472       .033775                    
P 25 -17265.840168   2307.737859 -19720.060452    375.442844                    
V 25  11725.476002 -23062.521860 -12567.782963      -.122340                    
P 26  11957.519163  -8248.687977  21776.844959     -5.868980                    
V 26  11744.375180  26117.895107   3931.705279      -.179494                    
P 27   -426.141860  21721.149149  15728.391147     89.844362                    
V 27 -11535.189497  15146.353531 -22408.643055       .021055                    
P 28  16882.753954  13210.526840  16220.189603      9.084570                    
V 28 -19930.775045   -574.141127  21284.761143      -.009269                    
P 29  14288.995326  -4087.041653  22257.014007    323.240443                    
V 29  11778.192468  24976.870262  -2674.158958       .150447                    
P 30   -307.563252 -15701.751190 -21726.868465     23.237846                    
V 30  26895.058657   1256.976373  -1197.651746       .011352                    
P 31 -15447.191945  -3614.647133 -21108.687351      -.952418                    
V 31  15009.609824 -22769.241536  -6969.278642       .051681                    
EOF
